COSMOS 2419 (714)       
1 28915U 05050A   17282.10326990  .00000008  00000-0  00000-0 0  9993
2 28915  65.5527  62.0169 0015811 358.2201 357.3572  2.13106746 91752
COSMOS 2425 (716)       
1 29670U 06062A   17282.22233725  .00000017  00000-0  10000-3 0  9996
2 29670  65.4048 301.0167 0020441 337.9587 160.4247  2.13105057 83968
COSMOS 2426 (717)       
1 29671U 06062B   17282.30780317  .00000017  00000-0  10000-3 0  9990
2 29671  65.4225 301.1063 0018467 173.9964 247.4543  2.13103163 83976
COSMOS 2424 (715)       
1 29672U 06062C   17282.41105896  .00000017  00000-0  10000-3 0  9996
2 29672  65.4068 301.0227 0018062 172.6761 143.0542  2.13102423 83962
COSMOS 2433 (720)       
1 32275U 07052A   17282.30660478  .00000008  00000-0  10000-3 0  9999
2 32275  65.5689  61.7912 0001584 203.8612 191.0908  2.13104793 77480
COSMOS 2432 (719)       
1 32276U 07052B   17282.36892770  .00000008  00000-0  10000-3 0  9998
2 32276  65.5811  61.8622 0009479 343.1141  52.2773  2.13104026 77480
COSMOS 2434 (721)       
1 32393U 07065A   17282.45374479  .00000017  00000-0  00000-0 0  9999
2 32393  65.0213 300.1042 0003298 157.2655 239.6155  2.13103028 76196
COSMOS 2436 (723)       
1 32395U 07065C   17282.43262162  .00000017  00000-0  10000-3 0  9998
2 32395  65.0307 300.1512 0013589 349.8149  80.1225  2.13104399 76127
COSMOS 2443 (725)       
1 33379U 08046B   17282.36259578  .00000007  00000-0  00000+0 0  9994
2 33379  65.4987  61.1616 0013011 177.3477 158.9568  2.13099390 70341
COSMOS 2456 (730)       
1 36111U 09070A   17282.34945194  .00000028  00000-0  00000-0 0  9997
2 36111  64.1798 179.6734 0004509 315.2500 173.1202  2.13103068 60859
COSMOS 2457 (733)       
1 36112U 09070B   17282.25481561  .00000029  00000-0  00000-0 0  9992
2 36112  64.1622 179.5941 0006106 168.6100  15.2057  2.13101831 60856
COSMOS 2458 (734)       
1 36113U 09070C   17282.45042847  .00000027  00000-0  10000-3 0  9997
2 36113  64.1690 179.5956 0001591   1.4415  20.5152  2.13101914 60862
COSMOS 2459 (731)       
1 36400U 10007A   17282.44460912  .00000006  00000-0  10000-3 0  9991
2 36400  65.4776  60.8781 0025848 356.3170   5.6262  2.13102254 59210
COSMOS 2461 (735)       
1 36401U 10007B   17282.33226337  .00000006  00000-0  10000-3 0  9991
2 36401  65.4697  60.8588 0008274  80.8425 105.5313  2.13102240 59205
COSMOS 2460 (732)       
1 36402U 10007C   17282.48725207  .00000006  00000-0  10000-3 0  9998
2 36402  65.4610  60.8245 0002247 115.8257 230.5033  2.13101797 59201
COSMOS 2465 (737)       
1 37138U 10041B   17282.44419642  .00000016  00000-0  00000-0 0  9999
2 37138  64.6179 300.0352 0036481 172.6753 259.9368  2.13097564 55282
COSMOS 2464 (736)       
1 37139U 10041C   17282.22566638  .00000016  00000-0  00000-0 0  9994
2 37139  64.6257 300.0415 0021345   6.6841  82.9620  2.13102789 55277
COSMOS 2471 (701K)      
1 37372U 11009A   17282.37806596  .00000006  00000-0  00000-0 0  9993
2 37372  65.4577  60.7755 0007512 220.9780 180.1565  2.13107681 51484
COSMOS 2474 (742)       
1 37829U 11055A   17282.23004171  .00000029  00000-0  00000-0 0  9990
2 37829  64.5038 180.2900 0008479 249.2315   6.8029  2.13102013 46841
COSMOS 2476 (744)       
1 37867U 11064A   17282.22984582  .00000029  00000-0  00000-0 0  9994
2 37867  64.4845 180.3589 0017901 243.4552  58.3970  2.13102052 46199
COSMOS 2477 (745)       
1 37868U 11064B   17282.33268304  .00000028  00000-0  00000-0 0  9993
2 37868  64.4922 180.4016 0015712 244.5764 315.2380  2.13101967 46157
COSMOS 2475 (743)       
1 37869U 11064C   17282.40515373  .00000027  00000-0  00000-0 0  9992
2 37869  64.4996 180.3909 0020461 270.5248 301.3989  2.13102308 46164
COSMOS 2485 (747)       
1 39155U 13019A   17282.36221410  .00000028  00000-0  00000+0 0  9995
2 39155  64.6541 180.4095 0018286 238.0373 210.3549  2.13102135 34671
COSMOS 2492 (754)       
1 39620U 14012A   17282.59617567  .00000006  00000-0  10000-3 0  9994
2 39620  65.3508  60.7418 0012732 334.7695 327.4870  2.13103532 27625
COSMOS 2500 (755)       
1 40001U 14032A   17282.37393113  .00000005  00000-0  00000-0 0  9990
2 40001  65.2921  60.7383 0006494 186.9910 167.5826  2.13102877 25830
COSMOS 2501 (702K)      
1 40315U 14075A   17282.26582362  .00000014  00000-0  00000-0 0  9999
2 40315  64.3516 301.3422 0017044 211.6296 224.6126  2.13098701 22242
COSMOS 2514 (751)       
1 41330U 16008A   17282.17748214  .00000005  00000-0  00000-0 0  9995
2 41330  65.0924  60.8599 0009258 201.8556 182.2811  2.13103418 13007
COSMOS 2516 (753)       
1 41554U 16032A   17282.42611704  .00000014  00000-0  00000-0 0  9991
2 41554  64.5715 301.1308 0014645 223.7765 243.1281  2.13101766 10613
